CCSDS_OMM_VERS = 2.0
CREATION_DATE  = 
ORIGINATOR     = 

OBJECT_NAME    = 2026-023C
OBJECT_ID      = 2026-023C
CENTER_NAME    = EARTH
REF_FRAME      = TEME
TIME_SYSTEM    = UTC
MEAN_ELEMENT_THEORY = SGP/SGP4

EPOCH          = 2026-03-01T04:15:00.398016
MEAN_MOTION    = 15.22857395
ECCENTRICITY   = .0020068
INCLINATION    = 96.6414
RA_OF_ASC_NODE = 134.1330
ARG_OF_PERICENTER = 151.1434
MEAN_ANOMALY   = 209.0919

EPHEMERIS_TYPE = 0
CLASSIFICATION_TYPE = U
NORAD_CAT_ID   = 67676
ELEMENT_SET_NO = 999
REV_AT_EPOCH   = 372
BSTAR          = .60134E-3
MEAN_MOTION_DOT = .14112E-3
MEAN_MOTION_DDOT = 0

CCSDS_OMM_VERS = 2.0
CREATION_DATE  = 
ORIGINATOR     = 

OBJECT_NAME    = 2026-023D
OBJECT_ID      = 2026-023D
CENTER_NAME    = EARTH
REF_FRAME      = TEME
TIME_SYSTEM    = UTC
MEAN_ELEMENT_THEORY = SGP/SGP4

EPOCH          = 2026-03-01T04:18:01.387872
MEAN_MOTION    = 15.22676749
ECCENTRICITY   = .0020269
INCLINATION    = 96.6445
RA_OF_ASC_NODE = 134.1205
ARG_OF_PERICENTER = 156.0531
MEAN_ANOMALY   = 204.1654

EPHEMERIS_TYPE = 0
CLASSIFICATION_TYPE = U
NORAD_CAT_ID   = 67677
ELEMENT_SET_NO = 999
REV_AT_EPOCH   = 355
BSTAR          = .51196E-3
MEAN_MOTION_DOT = .1194E-3
MEAN_MOTION_DDOT = 0

CCSDS_OMM_VERS = 2.0
CREATION_DATE  = 
ORIGINATOR     = 

OBJECT_NAME    = 2026-023E
OBJECT_ID      = 2026-023E
CENTER_NAME    = EARTH
REF_FRAME      = TEME
TIME_SYSTEM    = UTC
MEAN_ELEMENT_THEORY = SGP/SGP4

EPOCH          = 2026-03-01T04:15:34.921728
MEAN_MOTION    = 15.22830071
ECCENTRICITY   = .0020047
INCLINATION    = 96.6338
RA_OF_ASC_NODE = 134.1056
ARG_OF_PERICENTER = 155.5217
MEAN_ANOMALY   = 204.6978

EPHEMERIS_TYPE = 0
CLASSIFICATION_TYPE = U
NORAD_CAT_ID   = 67678
ELEMENT_SET_NO = 999
REV_AT_EPOCH   = 355
BSTAR          = .58517E-3
MEAN_MOTION_DOT = .1372E-3
MEAN_MOTION_DDOT = 0

CCSDS_OMM_VERS = 2.0
CREATION_DATE  = 
ORIGINATOR     = 

OBJECT_NAME    = 2026-023F
OBJECT_ID      = 2026-023F
CENTER_NAME    = EARTH
REF_FRAME      = TEME
TIME_SYSTEM    = UTC
MEAN_ELEMENT_THEORY = SGP/SGP4

EPOCH          = 2026-03-01T04:12:27.201312
MEAN_MOTION    = 15.22983798
ECCENTRICITY   = .0021931
INCLINATION    = 96.6346
RA_OF_ASC_NODE = 136.6051
ARG_OF_PERICENTER = 150.5636
MEAN_ANOMALY   = 209.6843

EPHEMERIS_TYPE = 0
CLASSIFICATION_TYPE = U
NORAD_CAT_ID   = 67679
ELEMENT_SET_NO = 999
REV_AT_EPOCH   = 354
BSTAR          = .57933E-3
MEAN_MOTION_DOT = .13659E-3
MEAN_MOTION_DDOT = 0

CCSDS_OMM_VERS = 2.0
CREATION_DATE  = 
ORIGINATOR     = 

OBJECT_NAME    = 2026-023G
OBJECT_ID      = 2026-023G
CENTER_NAME    = EARTH
REF_FRAME      = TEME
TIME_SYSTEM    = UTC
MEAN_ELEMENT_THEORY = SGP/SGP4

EPOCH          = 2026-03-01T04:13:20.237952
MEAN_MOTION    = 15.22939140
ECCENTRICITY   = .002349
INCLINATION    = 96.6274
RA_OF_ASC_NODE = 136.5907
ARG_OF_PERICENTER = 147.1236
MEAN_ANOMALY   = 213.1469

EPHEMERIS_TYPE = 0
CLASSIFICATION_TYPE = U
NORAD_CAT_ID   = 67680
ELEMENT_SET_NO = 999
REV_AT_EPOCH   = 354
BSTAR          = .61906E-3
MEAN_MOTION_DOT = .14597E-3
MEAN_MOTION_DDOT = 0

CCSDS_OMM_VERS = 2.0
CREATION_DATE  = 
ORIGINATOR     = 

OBJECT_NAME    = 2026-023H
OBJECT_ID      = 2026-023H
CENTER_NAME    = EARTH
REF_FRAME      = TEME
TIME_SYSTEM    = UTC
MEAN_ELEMENT_THEORY = SGP/SGP4

EPOCH          = 2026-03-01T04:13:18.924672
MEAN_MOTION    = 15.22888792
ECCENTRICITY   = .0023565
INCLINATION    = 96.6419
RA_OF_ASC_NODE = 136.6154
ARG_OF_PERICENTER = 146.4933
MEAN_ANOMALY   = 213.7802

EPHEMERIS_TYPE = 0
CLASSIFICATION_TYPE = U
NORAD_CAT_ID   = 67681
ELEMENT_SET_NO = 999
REV_AT_EPOCH   = 354
BSTAR          = .52293E-3
MEAN_MOTION_DOT = .12299E-3
MEAN_MOTION_DDOT = 0

CCSDS_OMM_VERS = 2.0
CREATION_DATE  = 
ORIGINATOR     = 

OBJECT_NAME    = 2026-023J
OBJECT_ID      = 2026-023J
CENTER_NAME    = EARTH
REF_FRAME      = TEME
TIME_SYSTEM    = UTC
MEAN_ELEMENT_THEORY = SGP/SGP4

EPOCH          = 2026-03-01T04:11:57.933312
MEAN_MOTION    = 15.22979499
ECCENTRICITY   = .0023721
INCLINATION    = 96.6374
RA_OF_ASC_NODE = 136.6214
ARG_OF_PERICENTER = 143.4173
MEAN_ANOMALY   = 216.8692

EPHEMERIS_TYPE = 0
CLASSIFICATION_TYPE = U
NORAD_CAT_ID   = 67682
ELEMENT_SET_NO = 999
REV_AT_EPOCH   = 354
BSTAR          = .66531E-3
MEAN_MOTION_DOT = .15715E-3
MEAN_MOTION_DDOT = 0

CCSDS_OMM_VERS = 2.0
CREATION_DATE  = 
ORIGINATOR     = 

OBJECT_NAME    = ISS OBJECT XZ
OBJECT_ID      = 1998-067XZ
CENTER_NAME    = EARTH
REF_FRAME      = TEME
TIME_SYSTEM    = UTC
MEAN_ELEMENT_THEORY = SGP/SGP4

EPOCH          = 2026-03-01T03:51:17.363232
MEAN_MOTION    = 15.51054892
ECCENTRICITY   = .0009654
INCLINATION    = 51.6321
RA_OF_ASC_NODE = 114.2060
ARG_OF_PERICENTER = 157.7357
MEAN_ANOMALY   = 202.4053

EPHEMERIS_TYPE = 0
CLASSIFICATION_TYPE = U
NORAD_CAT_ID   = 67683
ELEMENT_SET_NO = 999
REV_AT_EPOCH   = 346
BSTAR          = .65168E-3
MEAN_MOTION_DOT = .384E-3
MEAN_MOTION_DDOT = 0

CCSDS_OMM_VERS = 2.0
CREATION_DATE  = 
ORIGINATOR     = 

OBJECT_NAME    = GXIBA-1
OBJECT_ID      = 1998-067YA
CENTER_NAME    = EARTH
REF_FRAME      = TEME
TIME_SYSTEM    = UTC
MEAN_ELEMENT_THEORY = SGP/SGP4

EPOCH          = 2026-02-28T10:29:21.411168
MEAN_MOTION    = 15.52723154
ECCENTRICITY   = .00110764
INCLINATION    = 51.6306
RA_OF_ASC_NODE = 117.6242
ARG_OF_PERICENTER = 146.1897
MEAN_ANOMALY   = 213.9801

EPHEMERIS_TYPE = 0
CLASSIFICATION_TYPE = U
NORAD_CAT_ID   = 67684
ELEMENT_SET_NO = 999
REV_AT_EPOCH   = 335
BSTAR          = .10101779E-2
MEAN_MOTION_DOT = .63733E-3
MEAN_MOTION_DDOT = 0

CCSDS_OMM_VERS = 2.0
CREATION_DATE  = 
ORIGINATOR     = 

OBJECT_NAME    = CORAL
OBJECT_ID      = 1998-067YB
CENTER_NAME    = EARTH
REF_FRAME      = TEME
TIME_SYSTEM    = UTC
MEAN_ELEMENT_THEORY = SGP/SGP4

EPOCH          = 2026-02-28T09:14:14.098560
MEAN_MOTION    = 15.51261455
ECCENTRICITY   = .00116358
INCLINATION    = 51.6317
RA_OF_ASC_NODE = 118.0258
ARG_OF_PERICENTER = 150.9862
MEAN_ANOMALY   = 209.1777

EPHEMERIS_TYPE = 0
CLASSIFICATION_TYPE = U
NORAD_CAT_ID   = 67685
ELEMENT_SET_NO = 999
REV_AT_EPOCH   = 334
BSTAR          = .66081584E-3
MEAN_MOTION_DOT = .39273E-3
MEAN_MOTION_DDOT = 0

CCSDS_OMM_VERS = 2.0
CREATION_DATE  = 
ORIGINATOR     = 

OBJECT_NAME    = ISS OBJECT YC
OBJECT_ID      = 1998-067YC
CENTER_NAME    = EARTH
REF_FRAME      = TEME
TIME_SYSTEM    = UTC
MEAN_ELEMENT_THEORY = SGP/SGP4

EPOCH          = 2026-03-01T03:42:59.523840
MEAN_MOTION    = 15.51697648
ECCENTRICITY   = .0007632
INCLINATION    = 51.6315
RA_OF_ASC_NODE = 114.1689
ARG_OF_PERICENTER = 121.5200
MEAN_ANOMALY   = 238.6536

EPHEMERIS_TYPE = 0
CLASSIFICATION_TYPE = U
NORAD_CAT_ID   = 67686
ELEMENT_SET_NO = 999
REV_AT_EPOCH   = 346
BSTAR          = .83156E-3
MEAN_MOTION_DOT = .5032E-3
MEAN_MOTION_DDOT = 0

CCSDS_OMM_VERS = 2.0
CREATION_DATE  = 
ORIGINATOR     = 

OBJECT_NAME    = LEOPARD
OBJECT_ID      = 1998-067YD
CENTER_NAME    = EARTH
REF_FRAME      = TEME
TIME_SYSTEM    = UTC
MEAN_ELEMENT_THEORY = SGP/SGP4

EPOCH          = 2026-03-01T03:49:08.265216
MEAN_MOTION    = 15.51184896
ECCENTRICITY   = .0007666
INCLINATION    = 51.6314
RA_OF_ASC_NODE = 114.1963
ARG_OF_PERICENTER = 125.9436
MEAN_ANOMALY   = 234.2266

EPHEMERIS_TYPE = 0
CLASSIFICATION_TYPE = U
NORAD_CAT_ID   = 67687
ELEMENT_SET_NO = 999
REV_AT_EPOCH   = 338
BSTAR          = .67111E-3
MEAN_MOTION_DOT = .39724E-3
MEAN_MOTION_DDOT = 0

