2026-023C               
1 67676U 26023C   26060.17708794  .00014112  00000+0  60134-3 0  9997
2 67676  96.6414 134.1330 0020068 151.1434 209.0919 15.22857395  3723
2026-023D               
1 67677U 26023D   26060.17918273  .00011940  00000+0  51196-3 0  9997
2 67677  96.6445 134.1205 0020269 156.0531 204.1654 15.22676749  3559
2026-023E               
1 67678U 26023E   26060.17748752  .00013720  00000+0  58517-3 0  9993
2 67678  96.6338 134.1056 0020047 155.5217 204.6978 15.22830071  3558
2026-023F               
1 67679U 26023F   26060.17531483  .00013659  00000+0  57933-3 0  9997
2 67679  96.6346 136.6051 0021931 150.5636 209.6843 15.22983798  3543
2026-023G               
1 67680U 26023G   26060.17592868  .00014597  00000+0  61906-3 0  9990
2 67680  96.6274 136.5907 0023490 147.1236 213.1469 15.22939140  3540
2026-023H               
1 67681U 26023H   26060.17591348  .00012299  00000+0  52293-3 0  9999
2 67681  96.6419 136.6154 0023565 146.4933 213.7802 15.22888792  3549
2026-023J               
1 67682U 26023J   26060.17497608  .00015715  00000+0  66531-3 0  9990
2 67682  96.6374 136.6214 0023721 143.4173 216.8692 15.22979499  3540
ISS OBJECT XZ           
1 67683U 98067XZ  26060.16061763  .00038400  00000+0  65168-3 0  9997
2 67683  51.6321 114.2060 0009654 157.7357 202.4053 15.51054892  3462
GXIBA-1                 
1 67684U 98067YA  26059.43705337  .00063733  00000+0  10102-2 0  9992
2 67684  51.6306 117.6242 0011076 146.1897 213.9801 15.52723154  3358
CORAL                   
1 67685U 98067YB  26059.38488540  .00039273  00000+0  66082-3 0  9992
2 67685  51.6317 118.0258 0011635 150.9862 209.1777 15.51261455  3347
ISS OBJECT YC           
1 67686U 98067YC  26060.15485560  .00050320  00000+0  83156-3 0  9996
2 67686  51.6315 114.1689 0007632 121.5200 238.6536 15.51697648  3463
LEOPARD                 
1 67687U 98067YD  26060.15912344  .00039724  00000+0  67111-3 0  9990
2 67687  51.6314 114.1963 0007666 125.9436 234.2266 15.51184896  3383
